UMBRA-07                
1 58297U 23174AT  26187.72967242  .00006459  00000+0  40651-3 0  9993
2 58297  97.3779 242.7551 0003213  43.5086 316.6396 15.09517646146364
UMBRA-09                
1 60541U 24149CB  26187.70672133  .00012102  00000+0  58657-3 0  9998
2 60541  97.6968 275.2535 0001628 221.1820 138.9291 15.18680231103681
UMBRA-10                
1 60547U 24149CH  26187.70628014  .00012872  00000+0  62367-3 0  9990
2 60547  97.6973 275.2828 0001073 174.0706 186.0540 15.18677299103693
UMBRA-11                
1 66748U 25276CL  26187.71780315  .00015279  00000+0  56939-3 0  9997
2 66748  97.4185 262.2363 0001855 211.0304 149.0826 15.27537312 33474
UMBRA-12                
1 67371U 26004J   26187.72452134  .00003606  00000+0  38434-3 0  9997
2 67371  97.8020 186.2249 0007775  74.9094 285.2983 14.89486235 26211
