{"fetched_at":"2026-07-07T07:58:59.105Z","source":"https://celestrak.org/NORAD/elements/gp.php?NAME=UMBRA&FORMAT=JSON","constellation":"umbra","records":[{"OBJECT_NAME":"UMBRA-07","OBJECT_ID":"2023-174AT","EPOCH":"2026-07-06T17:30:43.697088","CLASSIFICATION_TYPE":"U","MEAN_MOTION":15.09517646,"ECCENTRICITY":0.0003213,"INCLINATION":97.3779,"RA_OF_ASC_NODE":242.7551,"ARG_OF_PERICENTER":43.5086,"MEAN_ANOMALY":316.6396,"EPHEMERIS_TYPE":0,"NORAD_CAT_ID":58297,"ELEMENT_SET_NO":999,"REV_AT_EPOCH":14636,"BSTAR":0.00040651,"MEAN_MOTION_DOT":0.00006459,"MEAN_MOTION_DDOT":0},{"OBJECT_NAME":"UMBRA-09","OBJECT_ID":"2024-149CB","EPOCH":"2026-07-06T16:57:40.722912","CLASSIFICATION_TYPE":"U","MEAN_MOTION":15.18680231,"ECCENTRICITY":0.0001628,"INCLINATION":97.6968,"RA_OF_ASC_NODE":275.2535,"ARG_OF_PERICENTER":221.182,"MEAN_ANOMALY":138.9291,"EPHEMERIS_TYPE":0,"NORAD_CAT_ID":60541,"ELEMENT_SET_NO":999,"REV_AT_EPOCH":10368,"BSTAR":0.00058657,"MEAN_MOTION_DOT":0.00012102,"MEAN_MOTION_DDOT":0},{"OBJECT_NAME":"UMBRA-10","OBJECT_ID":"2024-149CH","EPOCH":"2026-07-06T16:57:02.604096","CLASSIFICATION_TYPE":"U","MEAN_MOTION":15.18677299,"ECCENTRICITY":0.0001073,"INCLINATION":97.6973,"RA_OF_ASC_NODE":275.2828,"ARG_OF_PERICENTER":174.0706,"MEAN_ANOMALY":186.054,"EPHEMERIS_TYPE":0,"NORAD_CAT_ID":60547,"ELEMENT_SET_NO":999,"REV_AT_EPOCH":10369,"BSTAR":0.00062367,"MEAN_MOTION_DOT":0.00012872,"MEAN_MOTION_DDOT":0},{"OBJECT_NAME":"UMBRA-11","OBJECT_ID":"2025-276CL","EPOCH":"2026-07-06T17:13:38.192160","CLASSIFICATION_TYPE":"U","MEAN_MOTION":15.27537312,"ECCENTRICITY":0.0001855,"INCLINATION":97.4185,"RA_OF_ASC_NODE":262.2363,"ARG_OF_PERICENTER":211.0304,"MEAN_ANOMALY":149.0826,"EPHEMERIS_TYPE":0,"NORAD_CAT_ID":66748,"ELEMENT_SET_NO":999,"REV_AT_EPOCH":3347,"BSTAR":0.00056939,"MEAN_MOTION_DOT":0.00015279,"MEAN_MOTION_DDOT":0},{"OBJECT_NAME":"UMBRA-12","OBJECT_ID":"2026-004J","EPOCH":"2026-07-06T17:23:18.643776","CLASSIFICATION_TYPE":"U","MEAN_MOTION":14.89486235,"ECCENTRICITY":0.0007775,"INCLINATION":97.802,"RA_OF_ASC_NODE":186.2249,"ARG_OF_PERICENTER":74.9094,"MEAN_ANOMALY":285.2983,"EPHEMERIS_TYPE":0,"NORAD_CAT_ID":67371,"ELEMENT_SET_NO":999,"REV_AT_EPOCH":2621,"BSTAR":0.00038434,"MEAN_MOTION_DOT":0.00003606,"MEAN_MOTION_DDOT":0}]}
